GLOBALSTAR M045         
1 25676U 99019A   24328.02787389 -.00000039  00000+0  48287-3 0  9991
2 25676  51.9939 172.8639 0001262 101.0991  19.4046 12.27052037168088
GLOBALSTAR M044         
1 25678U 99019C   24328.03140671 -.00000123  00000+0 -54879-3 0  9990
2 25678  51.9955 214.2828 0007101  12.6303 123.2319 11.90244568146771
GLOBALSTAR M042         
1 25679U 99019D   24328.30433633 -.00000088  00000+0  43087-4 0  9993
2 25679  52.0016 272.1622 0002203 234.3193 292.2979 12.22073592160087
GLOBALSTAR M025         
1 25770U 99031A   24328.27699520 -.00000042  00000+0  78070-3 0  9993
2 25770  51.9820 276.2768 0001264 131.8671  18.1151 11.22556868458587
GLOBALSTAR M049         
1 25771U 99031B   24328.33962834 -.00000107  00000+0 -14434-2 0  9998
2 25771  51.9886 300.5499 0003727  30.8981 329.2034 11.12114623 94524
GLOBALSTAR M047         
1 25772U 99031C   24328.21565354 -.00000066  00000+0  10025-3 0  9998
2 25772  51.9849 317.4793 0016219 270.2179  89.6768 11.31924915447782
GLOBALSTAR M052         
1 25773U 99031D   24328.39843028 -.00000038  00000+0  93409-3 0  9991
2 25773  51.9894  51.9838 0002946 178.5477 219.5065 11.15055615455558
